{
  "norad_id": 65449,
  "name": "STARLINK-35009",
  "history": [
    {
      "epoch": "2026-03-28T20:04:58.652544",
      "apogee_km": 550.799705148509,
      "perigee_km": 548.1911744296303,
      "latitude_deg": -72.80068235761796,
      "longitude_deg": 85.2318361599464,
      "semi_major_axis_km": 6927.632439789069,
      "eccentricity": 0.00018827,
      "inclination_deg": 97.6015,
      "raan_deg": 303.3387,
      "arg_perigee_deg": 81.911,
      "mean_anomaly_deg": 278.233,
      "mean_motion_rev_day": 15.05655123
    },
    {
      "epoch": "2026-03-29T04:03:28.752192",
      "apogee_km": 550.7197787518107,
      "perigee_km": 548.277094496857,
      "latitude_deg": -77.46936799149049,
      "longitude_deg": 117.13194687990472,
      "semi_major_axis_km": 6927.635436624334,
      "eccentricity": 0.0001763,
      "inclination_deg": 97.6013,
      "raan_deg": 303.6662,
      "arg_perigee_deg": 83.1333,
      "mean_anomaly_deg": 277.0094,
      "mean_motion_rev_day": 15.05654146
    }
  ]
}